{"fetched_at":"2026-07-07T07:58:37.854Z","source":"https://celestrak.org/NORAD/elements/gp.php?NAME=JILIN&FORMAT=JSON","constellation":"jilin-1-early","records":[{"OBJECT_NAME":"JILIN-1","OBJECT_ID":"2015-057D","EPOCH":"2026-07-06T18:42:24.250176","CLASSIFICATION_TYPE":"U","MEAN_MOTION":14.78192526,"ECCENTRICITY":0.0016443,"INCLINATION":97.6513,"RA_OF_ASC_NODE":186.174,"ARG_OF_PERICENTER":194.3742,"MEAN_ANOMALY":165.7004,"EPHEMERIS_TYPE":0,"NORAD_CAT_ID":40961,"ELEMENT_SET_NO":999,"REV_AT_EPOCH":57850,"BSTAR":0.00011698,"MEAN_MOTION_DOT":0.00000801,"MEAN_MOTION_DDOT":0},{"OBJECT_NAME":"JILIN-1 03","OBJECT_ID":"2017-002B","EPOCH":"2026-07-06T19:41:55.367808","CLASSIFICATION_TYPE":"U","MEAN_MOTION":15.42079672,"ECCENTRICITY":0.0008007,"INCLINATION":97.1952,"RA_OF_ASC_NODE":194.6339,"ARG_OF_PERICENTER":101.5466,"MEAN_ANOMALY":258.6681,"EPHEMERIS_TYPE":0,"NORAD_CAT_ID":41914,"ELEMENT_SET_NO":999,"REV_AT_EPOCH":52488,"BSTAR":0.00024716,"MEAN_MOTION_DOT":0.00010492,"MEAN_MOTION_DDOT":0},{"OBJECT_NAME":"JILIN-1 04","OBJECT_ID":"2017-074A","EPOCH":"2026-07-06T20:52:24.727296","CLASSIFICATION_TYPE":"U","MEAN_MOTION":15.42977027,"ECCENTRICITY":0.0005169,"INCLINATION":97.4866,"RA_OF_ASC_NODE":298.0152,"ARG_OF_PERICENTER":121.7452,"MEAN_ANOMALY":238.43,"EPHEMERIS_TYPE":0,"NORAD_CAT_ID":43022,"ELEMENT_SET_NO":999,"REV_AT_EPOCH":47730,"BSTAR":0.00025133,"MEAN_MOTION_DOT":0.00010985,"MEAN_MOTION_DDOT":0},{"OBJECT_NAME":"JILIN-1 05","OBJECT_ID":"2017-074B","EPOCH":"2026-07-06T19:41:47.566752","CLASSIFICATION_TYPE":"U","MEAN_MOTION":15.3419426,"ECCENTRICITY":0.0005998,"INCLINATION":97.4872,"RA_OF_ASC_NODE":294.2455,"ARG_OF_PERICENTER":148.3598,"MEAN_ANOMALY":211.8006,"EPHEMERIS_TYPE":0,"NORAD_CAT_ID":43023,"ELEMENT_SET_NO":999,"REV_AT_EPOCH":47701,"BSTAR":0.00019735,"MEAN_MOTION_DOT":0.00006453,"MEAN_MOTION_DDOT":0},{"OBJECT_NAME":"JILIN-1 06","OBJECT_ID":"2017-074C","EPOCH":"2026-07-06T20:38:51.010368","CLASSIFICATION_TYPE":"U","MEAN_MOTION":15.33932869,"ECCENTRICITY":0.000746,"INCLINATION":97.4798,"RA_OF_ASC_NODE":291.2694,"ARG_OF_PERICENTER":159.5873,"MEAN_ANOMALY":200.5669,"EPHEMERIS_TYPE":0,"NORAD_CAT_ID":43024,"ELEMENT_SET_NO":999,"REV_AT_EPOCH":47685,"BSTAR":0.00014193,"MEAN_MOTION_DOT":0.0000458,"MEAN_MOTION_DDOT":0},{"OBJECT_NAME":"JILIN-1 07","OBJECT_ID":"2018-008E","EPOCH":"2026-07-06T18:45:24.991200","CLASSIFICATION_TYPE":"U","MEAN_MOTION":15.35067439,"ECCENTRICITY":0.0007701,"INCLINATION":97.1768,"RA_OF_ASC_NODE":207.1904,"ARG_OF_PERICENTER":1.6623,"MEAN_ANOMALY":358.4645,"EPHEMERIS_TYPE":0,"NORAD_CAT_ID":43159,"ELEMENT_SET_NO":999,"REV_AT_EPOCH":46800,"BSTAR":0.00022552,"MEAN_MOTION_DOT":0.00007603,"MEAN_MOTION_DDOT":0},{"OBJECT_NAME":"JILIN-1 08","OBJECT_ID":"2018-008F","EPOCH":"2026-07-06T20:39:13.076928","CLASSIFICATION_TYPE":"U","MEAN_MOTION":15.33944513,"ECCENTRICITY":0.000635,"INCLINATION":97.1804,"RA_OF_ASC_NODE":206.562,"ARG_OF_PERICENTER":22.7169,"MEAN_ANOMALY":337.4354,"EPHEMERIS_TYPE":0,"NORAD_CAT_ID":43160,"ELEMENT_SET_NO":999,"REV_AT_EPOCH":46796,"BSTAR":0.0001511,"MEAN_MOTION_DOT":0.00004887,"MEAN_MOTION_DDOT":0},{"OBJECT_NAME":"JILIN-1 09","OBJECT_ID":"2019-005B","EPOCH":"2026-07-06T20:32:29.980320","CLASSIFICATION_TYPE":"U","MEAN_MOTION":15.2069315,"ECCENTRICITY":0.0002997,"INCLINATION":97.4739,"RA_OF_ASC_NODE":282.653,"ARG_OF_PERICENTER":54.2678,"MEAN_ANOMALY":305.8836,"EPHEMERIS_TYPE":0,"NORAD_CAT_ID":43943,"ELEMENT_SET_NO":999,"REV_AT_EPOCH":41213,"BSTAR":0.00017453,"MEAN_MOTION_DOT":0.00003766,"MEAN_MOTION_DDOT":0},{"OBJECT_NAME":"JILIN-1 10","OBJECT_ID":"2019-005E","EPOCH":"2026-07-06T20:47:27.248640","CLASSIFICATION_TYPE":"U","MEAN_MOTION":15.25944678,"ECCENTRICITY":0.0007754,"INCLINATION":97.4789,"RA_OF_ASC_NODE":286.674,"ARG_OF_PERICENTER":198.7058,"MEAN_ANOMALY":161.3896,"EPHEMERIS_TYPE":0,"NORAD_CAT_ID":43946,"ELEMENT_SET_NO":999,"REV_AT_EPOCH":41231,"BSTAR":0.00018327,"MEAN_MOTION_DOT":0.00004633,"MEAN_MOTION_DDOT":0}]}
